{
  "type": "FeatureCollection",
  "features": [
    {
      "type": "Feature",
      "properties": {
        "norad_id": 41589,
        "name": "EUTELSAT 117 WEST B (WAAS/PRN 131)",
        "group": "gnss",
        "lat": 0.012929038365377765,
        "lon": -72.67886606977547,
        "alt_km": 35785.40937083385,
        "timestamp": "2025-12-27T20:30:59.527660+00:00",
        "meta_object_name": "EUTELSAT 117 WEST B (WAAS/PRN 131)",
        "meta_object_id": "2016-038B",
        "meta_epoch": "2025-12-27T07:38:14.830080",
        "meta_mean_motion": 1.00273464,
        "meta_eccentricity": 1.53e-05,
        "meta_inclination": 0.0038,
        "meta_ra_of_asc_node": 165.68,
        "meta_arg_of_pericenter": 47.668,
        "meta_mean_anomaly": 240.2602,
        "meta_ephemeris_type": 0,
        "meta_classification_type": "U",
        "meta_norad_cat_id": 41589,
        "meta_element_set_no": 999,
        "meta_rev_at_epoch": 3494,
        "meta_bstar": 0,
        "meta_mean_motion_dot": 1.1e-07,
        "meta_mean_motion_ddot": 0,
        "tle_line1": "1 41589U 16038B   25361.31822720  .00000011  00000+0  00000+0 0  9997",
        "tle_line2": "2 41589   0.0038 165.6800 0000153  47.6680 240.2602  1.00273464 34949"
      },
      "geometry": {
        "type": "Point",
        "coordinates": [
          -72.67886606977547,
          0.012929038365377765
        ]
      }
    },
    {
      "type": "Feature",
      "properties": {
        "norad_id": 41859,
        "name": "GSAT0207 (GALILEO 15)",
        "group": "gnss",
        "lat": -45.7332408047933,
        "lon": -29.137261042030033,
        "alt_km": 23225.766399845605,
        "timestamp": "2025-12-27T20:30:59.527671+00:00",
        "meta_object_name": "GSAT0207 (GALILEO 15)",
        "meta_object_id": "2016-069A",
        "meta_epoch": "2025-12-22T04:24:39.710016",
        "meta_mean_motion": 1.70474442,
        "meta_eccentricity": 0.00024396,
        "meta_inclination": 55.3874,
        "meta_ra_of_asc_node": 105.9888,
        "meta_arg_of_pericenter": 317.4324,
        "meta_mean_anomaly": 42.5257,
        "meta_ephemeris_type": 0,
        "meta_classification_type": "U",
        "meta_norad_cat_id": 41859,
        "meta_element_set_no": 999,
        "meta_rev_at_epoch": 5638,
        "meta_bstar": 0,
        "meta_mean_motion_dot": 6e-08,
        "meta_mean_motion_ddot": 0,
        "tle_line1": "1 41859U 16069A   25356.18379294  .00000006  00000+0  00000+0 0  9997",
        "tle_line2": "2 41859  55.3874 105.9888 0002439 317.4324  42.5257  1.70474442 56382"
      },
      "geometry": {
        "type": "Point",
        "coordinates": [
          -29.137261042030033,
          -45.7332408047933
        ]
      }
    },
    {
      "type": "Feature",
      "properties": {
        "norad_id": 41860,
        "name": "GSAT0212 (GALILEO 16)",
        "group": "gnss",
        "lat": -24.0915925574328,
        "lon": 87.86326822545378,
        "alt_km": 23221.30383548932,
        "timestamp": "2025-12-27T20:30:59.527682+00:00",
        "meta_object_name": "GSAT0212 (GALILEO 16)",
        "meta_object_id": "2016-069B",
        "meta_epoch": "2025-12-26T03:26:41.871552",
        "meta_mean_motion": 1.70474669,
        "meta_eccentricity": 0.00020518,
        "meta_inclination": 55.3873,
        "meta_ra_of_asc_node": 105.8745,
        "meta_arg_of_pericenter": 19.1308,
        "meta_mean_anomaly": 340.872,
        "meta_ephemeris_type": 0,
        "meta_classification_type": "U",
        "meta_norad_cat_id": 41860,
        "meta_element_set_no": 999,
        "meta_rev_at_epoch": 5670,
        "meta_bstar": 0,
        "meta_mean_motion_dot": 1.8e-07,
        "meta_mean_motion_ddot": 0,
        "tle_line1": "1 41860U 16069B   25360.14354018  .00000018  00000+0  00000+0 0  9990",
        "tle_line2": "2 41860  55.3873 105.8745 0002051  19.1308 340.8720  1.70474669 56708"
      },
      "geometry": {
        "type": "Point",
        "coordinates": [
          87.86326822545378,
          -24.0915925574328
        ]
      }
    },
    {
      "type": "Feature",
      "properties": {
        "norad_id": 41861,
        "name": "GSAT0213 (GALILEO 17)",
        "group": "gnss",
        "lat": 52.773319919554346,
        "lon": -139.3514100449186,
        "alt_km": 23224.554638329126,
        "timestamp": "2025-12-27T20:30:59.527694+00:00",
        "meta_object_name": "GSAT0213 (GALILEO 17)",
        "meta_object_id": "2016-069C",
        "meta_epoch": "2025-12-25T22:11:16.691136",
        "meta_mean_motion": 1.70474838,
        "meta_eccentricity": 0.0002917,
        "meta_inclination": 55.3899,
        "meta_ra_of_asc_node": 105.8882,
        "meta_arg_of_pericenter": 282.7957,
        "meta_mean_anomaly": 77.1667,
        "meta_ephemeris_type": 0,
        "meta_classification_type": "U",
        "meta_norad_cat_id": 41861,
        "meta_element_set_no": 999,
        "meta_rev_at_epoch": 5656,
        "meta_bstar": 0,
        "meta_mean_motion_dot": 1.8e-07,
        "meta_mean_motion_ddot": 0,
        "tle_line1": "1 41861U 16069C   25359.92449874  .00000018  00000+0  00000+0 0  9990",
        "tle_line2": "2 41861  55.3899 105.8882 0002917 282.7957  77.1667  1.70474838 56560"
      },
      "geometry": {
        "type": "Point",
        "coordinates": [
          -139.3514100449186,
          52.773319919554346
        ]
      }
    },
    {
      "type": "Feature",
      "properties": {
        "norad_id": 41862,
        "name": "GSAT0214 (GALILEO 18)",
        "group": "gnss",
        "lat": 12.385695424980257,
        "lon": 114.53740299158393,
        "alt_km": 23220.436267707235,
        "timestamp": "2025-12-27T20:30:59.527704+00:00",
        "meta_object_name": "GSAT0214 (GALILEO 18)",
        "meta_object_id": "2016-069D",
        "meta_epoch": "2025-12-27T05:50:53.189088",
        "meta_mean_motion": 1.70474774,
        "meta_eccentricity": 0.0001607,
        "meta_inclination": 55.3883,
        "meta_ra_of_asc_node": 105.8444,
        "meta_arg_of_pericenter": 288.5964,
        "meta_mean_anomaly": 71.3802,
        "meta_ephemeris_type": 0,
        "meta_classification_type": "U",
        "meta_norad_cat_id": 41862,
        "meta_element_set_no": 999,
        "meta_rev_at_epoch": 5671,
        "meta_bstar": 0,
        "meta_mean_motion_dot": 1.5e-07,
        "meta_mean_motion_ddot": 0,
        "tle_line1": "1 41862U 16069D   25361.24367117  .00000015  00000+0  00000+0 0  9995",
        "tle_line2": "2 41862  55.3883 105.8444 0001607 288.5964  71.3802  1.70474774 56718"
      },
      "geometry": {
        "type": "Point",
        "coordinates": [
          114.53740299158393,
          12.385695424980257
        ]
      }
    },
    {
      "type": "Feature",
      "properties": {
        "norad_id": 42709,
        "name": "SES-15 (WAAS/PRN 133)",
        "group": "gnss",
        "lat": -0.03431568063683548,
        "lon": -84.8709930039503,
        "alt_km": 35785.76210327121,
        "timestamp": "2025-12-27T20:30:59.527721+00:00",
        "meta_object_name": "SES-15 (WAAS/PRN 133)",
        "meta_object_id": "2017-026A",
        "meta_epoch": "2025-12-27T07:38:38.830272",
        "meta_mean_motion": 1.00267743,
        "meta_eccentricity": 9e-05,
        "meta_inclination": 0.0202,
        "meta_ra_of_asc_node": 336.3398,
        "meta_arg_of_pericenter": 6.9478,
        "meta_mean_anomaly": 98.251,
        "meta_ephemeris_type": 0,
        "meta_classification_type": "U",
        "meta_norad_cat_id": 42709,
        "meta_element_set_no": 999,
        "meta_rev_at_epoch": 571,
        "meta_bstar": 0,
        "meta_mean_motion_dot": 8.3e-07,
        "meta_mean_motion_ddot": 0,
        "tle_line1": "1 42709U 17026A   25361.31850498  .00000083  00000+0  00000+0 0  9992",
        "tle_line2": "2 42709   0.0202 336.3398 0000900   6.9478  98.2510  1.00267743  5714"
      },
      "geometry": {
        "type": "Point",
        "coordinates": [
          -84.8709930039503,
          -0.03431568063683548
        ]
      }
    },
    {
      "type": "Feature",
      "properties": {
        "norad_id": 42738,
        "name": "QZS-2 (QZSS/PRN 194)",
        "group": "gnss",
        "lat": -31.260821327280887,
        "lon": -161.29570288675683,
        "alt_km": 33142.43615704714,
        "timestamp": "2025-12-27T20:30:59.527734+00:00",
        "meta_object_name": "QZS-2 (QZSS/PRN 194)",
        "meta_object_id": "2017-028A",
        "meta_epoch": "2025-12-21T12:44:15.516096",
        "meta_mean_motion": 1.00280763,
        "meta_eccentricity": 0.07561437,
        "meta_inclination": 39.6996,
        "meta_ra_of_asc_node": 245.7532,
        "meta_arg_of_pericenter": 269.5788,
        "meta_mean_anomaly": 268.1676,
        "meta_ephemeris_type": 0,
        "meta_classification_type": "U",
        "meta_norad_cat_id": 42738,
        "meta_element_set_no": 999,
        "meta_rev_at_epoch": 584,
        "meta_bstar": 0,
        "meta_mean_motion_dot": -1.06e-06,
        "meta_mean_motion_ddot": 0,
        "tle_line1": "1 42738U 17028A   25355.53073514 -.00000106  00000+0  00000+0 0  9996",
        "tle_line2": "2 42738  39.6996 245.7532 0756143 269.5788 268.1676  1.00280763  5847"
      },
      "geometry": {
        "type": "Point",
        "coordinates": [
          -161.29570288675683,
          -31.260821327280887
        ]
      }
    }
  ]
}